$$SOE
2460728.500000000, A.D. 2025-Feb-22 00:00:00.0000, -3.443189974952561E+08, 2.852114528102390E+08, -7.234677063559771E+06,
2460735.500000000, A.D. 2025-Mar-01 00:00:00.0000, -3.512577728841616E+08, 2.777658807156264E+08, -7.315204418349132E+06,
2460742.500000000, A.D. 2025-Mar-08 00:00:00.0000, -3.580066799526988E+08, 2.701702085171774E+08, -7.391778685491472E+06,
2460749.500000000, A.D. 2025-Mar-15 00:00:00.0000, -3.645629716068928E+08, 2.624292224133914E+08, -7.464377394691721E+06,
2460756.500000000, A.D. 2025-Mar-22 00:00:00.0000, -3.709240169018852E+08, 2.545477344026616E+08, -7.532979893651932E+06,
2460763.500000000, A.D. 2025-Mar-29 00:00:00.0000, -3.770873006236992E+08, 2.465305781754359E+08, -7.597567379559919E+06,
2460770.500000000, A.D. 2025-Apr-05 00:00:00.0000, -3.830504211690465E+08, 2.383826059866628E+08, -7.658123013048872E+06,
2460777.500000000, A.D. 2025-Apr-12 00:00:00.0000, -3.888110886554177E+08, 2.301086866111556E+08, -7.714631930176482E+06,
2460784.500000000, A.D. 2025-Apr-19 00:00:00.0000, -3.943671234528873E+08, 2.217137035002868E+08, -7.767081207895458E+06,
2460791.500000000, A.D. 2025-Apr-26 00:00:00.0000, -3.997164548681291E+08, 2.132025529351378E+08, -7.815459824806675E+06,
2460798.500000000, A.D. 2025-May-03 00:00:00.0000, -4.048571198689502E+08, 2.045801421922097E+08, -7.859758626202896E+06,
2460805.500000000, A.D. 2025-May-10 00:00:00.0000, -4.097872618230476E+08, 1.958513877269912E+08, -7.899970295445181E+06,
2460812.500000000, A.D. 2025-May-17 00:00:00.0000, -4.145051292166982E+08, 1.870212133310352E+08, -7.936089338504367E+06,
2460819.500000000, A.D. 2025-May-24 00:00:00.0000, -4.190090741818208E+08, 1.780945482048631E+08, -7.968112102144174E+06,
2460826.500000000, A.D. 2025-May-31 00:00:00.0000, -4.232975504157385E+08, 1.690763252544398E+08, -7.996036838678911E+06,
2460833.500000000, A.D. 2025-Jun-07 00:00:00.0000, -4.273691108966653E+08, 1.599714808125338E+08, -8.019863682083838E+06,
2460840.500000000, A.D. 2025-Jun-14 00:00:00.0000, -4.312224077626510E+08, 1.507849551148616E+08, -8.039594373219140E+06,
2460847.500000000, A.D. 2025-Jun-21 00:00:00.0000, -4.348561931405539E+08, 1.415216902579902E+08, -8.055232113286786E+06,
2460854.500000000, A.D. 2025-Jun-28 00:00:00.0000, -4.382693177968968E+08, 1.321866274017451E+08, -8.066781687989995E+06,
2460861.500000000, A.D. 2025-Jul-05 00:00:00.0000, -4.414607291270891E+08, 1.227847053682461E+08, -8.074249546765901E+06,
2460868.500000000, A.D. 2025-Jul-12 00:00:00.0000, -4.444294696766482E+08, 1.133208598284378E+08, -8.077643793768987E+06,
2460875.500000000, A.D. 2025-Jul-19 00:00:00.0000, -4.471746760074403E+08, 1.038000224988555E+08, -8.076974155091219E+06,
2460882.500000000, A.D. 2025-Jul-26 00:00:00.0000, -4.496955777002789E+08, 9.422712028988816E+07, -8.072251946014196E+06,
2460889.500000000, A.D. 2025-Aug-02 00:00:00.0000, -4.519914964293069E+08, 8.460707442460474E+07, -8.063490042370066E+06,
2460896.500000000, A.D. 2025-Aug-09 00:00:00.0000, -4.540618450855653E+08, 7.494479951085535E+07, -8.050702859186642E+06,
2460903.500000000, A.D. 2025-Aug-16 00:00:00.0000, -4.559061268736209E+08, 6.524520250087725E+07, -8.033906348654676E+06,
2460910.500000000, A.D. 2025-Aug-23 00:00:00.0000, -4.575239340892944E+08, 5.551318155242655E+07, -8.013118042681459E+06,
2460917.500000000, A.D. 2025-Aug-30 00:00:00.0000, -4.589149462498837E+08, 4.575362550293352E+07, -7.988357111579528E+06,
2460924.500000000, A.D. 2025-Sep-06 00:00:00.0000, -4.600789289953815E+08, 3.597141495397417E+07, -7.959644226824731E+06,
2460931.500000000, A.D. 2025-Sep-13 00:00:00.0000, -4.610157354331674E+08, 2.617142248013023E+07, -7.927001277460204E+06,
2460938.500000000, A.D. 2025-Sep-20 00:00:00.0000, -4.617253066550213E+08, 1.635851031617898E+07, -7.890451374623618E+06,
2460945.500000000, A.D. 2025-Sep-27 00:00:00.0000, -4.622076703671801E+08, 6.537528632844194E+06, -7.850018986573393E+06,
2460952.500000000, A.D. 2025-Oct-04 00:00:00.0000, -4.624629396489512E+08, -3.286685062805152E+06, -7.805729974868910E+06,
2460959.500000000, A.D. 2025-Oct-11 00:00:00.0000, -4.624913122147021E+08, -1.310930634861779E+07, -7.757611574560327E+06,
2460966.500000000, A.D. 2025-Oct-18 00:00:00.0000, -4.622930698973370E+08, -2.292552440659096E+07, -7.705692366958325E+06,
2460973.500000000, A.D. 2025-Oct-25 00:00:00.0000, -4.618685782144363E+08, -3.273054263007078E+07, -7.650002256919781E+06,
2460980.500000000, A.D. 2025-Nov-01 00:00:00.0000, -4.612182859771482E+08, -4.251957930422559E+07, -7.590572456984615E+06,
2460987.500000000, A.D. 2025-Nov-08 00:00:00.0000, -4.603427249057878E+08, -5.228786839218226E+07, -7.527435484057534E+06,
2460994.500000000, A.D. 2025-Nov-15 00:00:00.0000, -4.592425091021416E+08, -6.203066048704894E+07, -7.460625186948627E+06,
2461001.500000000, A.D. 2025-Nov-22 00:00:00.0000, -4.579183339738454E+08, -7.174322371241114E+07, -7.390176823771130E+06,
2461008.500000000, A.D. 2025-Nov-29 00:00:00.0000, -4.563709747630979E+08, -8.142084343971348E+07, -7.316127082593113E+06,
2461015.500000000, A.D. 2025-Dec-06 00:00:00.0000, -4.546012869577987E+08, -9.105882096221584E+07, -7.238513847970035E+06,
2461022.500000000, A.D. 2025-Dec-13 00:00:00.0000, -4.526102081542663E+08, -1.006524744988789E+08, -7.157376029085495E+06,
2461029.500000000, A.D. 2025-Dec-20 00:00:00.0000, -4.503987578810633E+08, -1.101971415058337E+08, -7.072753686536275E+06,
2461036.500000000, A.D. 2025-Dec-27 00:00:00.0000, -4.479680364571177E+08, -1.196881797038199E+08, -6.984688147365682E+06,
2461043.500000000, A.D. 2026-Jan-03 00:00:00.0000, -4.453192243412439E+08, -1.291209674381289E+08, -6.893222024666592E+06,
2461050.500000000, A.D. 2026-Jan-10 00:00:00.0000, -4.424535818622788E+08, -1.384909040519117E+08, -6.798399207298651E+06,
2461057.500000000, A.D. 2026-Jan-17 00:00:00.0000, -4.393724490970694E+08, -1.477934103659981E+08, -6.700264848502517E+06,
2461064.500000000, A.D. 2026-Jan-24 00:00:00.0000, -4.360772458179268E+08, -1.570239292436402E+08, -6.598865358567990E+06,
2461071.500000000, A.D. 2026-Jan-31 00:00:00.0000, -4.325694714852586E+08, -1.661779262486075E+08, -6.494248404134102E+06,
2461078.500000000, A.D. 2026-Feb-07 00:00:00.0000, -4.288507052229128E+08, -1.752508904551240E+08, -6.386462924275957E+06,
2461085.500000000, A.D. 2026-Feb-14 00:00:00.0000, -4.249226055222533E+08, -1.842383354261569E+08, -6.275559187683083E+06,
2461092.500000000, A.D. 2026-Feb-21 00:00:00.0000, -4.207869092863705E+08, -1.931357997842263E+08, -6.161588879158020E+06,
2461099.500000000, A.D. 2026-Feb-28 00:00:00.0000, -4.164454312978008E+08, -2.019388462226052E+08, -6.044605021527067E+06,
2461106.500000000, A.D. 2026-Mar-07 00:00:00.0000, -4.119000661669419E+08, -2.106430609091702E+08, -5.924661703481928E+06,
2461113.500000000, A.D. 2026-Mar-14 00:00:00.0000, -4.071527899856492E+08, -2.192440556186408E+08, -5.801814058611557E+06,
2461120.500000000, A.D. 2026-Mar-21 00:00:00.0000, -4.022056599035703E+08, -2.277374696970347E+08, -5.676118422155216E+06,
2461127.500000000, A.D. 2026-Mar-28 00:00:00.0000, -3.970608136352347E+08, -2.361189708304701E+08, -5.547632396791801E+06,
2461134.500000000, A.D. 2026-Apr-04 00:00:00.0000, -3.917204694993631E+08, -2.443842555854121E+08, -5.416414850769490E+06,
2461141.500000000, A.D. 2026-Apr-11 00:00:00.0000, -3.861869267147964E+08, -2.525290500825903E+08, -5.282525902785882E+06,
2461148.500000000, A.D. 2026-Apr-18 00:00:00.0000, -3.804625657926273E+08, -2.605491108134861E+08, -5.146026908627450E+06,
2461155.500000000, A.D. 2026-Apr-25 00:00:00.0000, -3.745498489772732E+08, -2.684402255863656E+08, -5.006980452331707E+06,
2461162.500000000, A.D. 2026-May-02 00:00:00.0000, -3.684513207036240E+08, -2.761982146329878E+08, -4.865450346835688E+06,
2461169.500000000, A.D. 2026-May-09 00:00:00.0000, -3.621696079430088E+08, -2.838189319439949E+08, -4.721501660706148E+06,
2461176.500000000, A.D. 2026-May-16 00:00:00.0000, -3.557074200573503E+08, -2.912982666968347E+08, -4.575200794119865E+06,
2461183.500000000, A.D. 2026-May-23 00:00:00.0000, -3.490675481071435E+08, -2.986321437561856E+08, -4.426615525166452E+06,
2461190.500000000, A.D. 2026-May-30 00:00:00.0000, -3.422528656891052E+08, -3.058165229297634E+08, -4.275814809706941E+06,
2461197.500000000, A.D. 2026-Jun-06 00:00:00.0000, -3.352663316187243E+08, -3.128474002564147E+08, -4.122868573386371E+06,
2461204.500000000, A.D. 2026-Jun-13 00:00:00.0000, -3.281109907913601E+08, -3.197208111314519E+08, -3.967847816001967E+06,
2461211.500000000, A.D. 2026-Jun-20 00:00:00.0000, -3.207899737228060E+08, -3.264328323455435E+08, -3.810824743247434E+06,
2461218.500000000, A.D. 2026-Jun-27 00:00:00.0000, -3.133064964663132E+08, -3.329795833780413E+08, -3.651872797909051E+06,
2461225.500000000, A.D. 2026-Jul-04 00:00:00.0000, -3.056638609038627E+08, -3.393572277203549E+08, -3.491066653983846E+06,
2461232.500000000, A.D. 2026-Jul-11 00:00:00.0000, -2.978654551550286E+08, -3.455619743620704E+08, -3.328482207986668E+06,
2461239.500000000, A.D. 2026-Jul-18 00:00:00.0000, -2.899147540076608E+08, -3.515900794147106E+08, -3.164196573999971E+06,
2461246.500000000, A.D. 2026-Jul-25 00:00:00.0000, -2.818153193421354E+08, -3.574378478708919E+08, -2.998288084572628E+06,
2461253.500000000, A.D. 2026-Aug-01 00:00:00.0000, -2.735708004964870E+08, -3.631016355481182E+08, -2.830836305921286E+06,
2461260.500000000, A.D. 2026-Aug-08 00:00:00.0000, -2.651849343531064E+08, -3.685778512555673E+08, -2.661922090254486E+06,
2461267.500000000, A.D. 2026-Aug-15 00:00:00.0000, -2.566615447286982E+08, -3.738629587368273E+08, -2.491627666659445E+06,
2461274.500000000, A.D. 2026-Aug-22 00:00:00.0000, -2.480045418262373E+08, -3.789534771700656E+08, -2.320036601019412E+06,
2461281.500000000, A.D. 2026-Aug-29 00:00:00.0000, -2.392179240353661E+08, -3.838459815999548E+08, -2.147233527206689E+06,
2461288.500000000, A.D. 2026-Sep-05 00:00:00.0000, -2.303057799445455E+08, -3.885371061713020E+08, -1.973304079635680E+06,
$$EOE